IRIDIUM 126             
1 42809U 17039G   25240.60924638  .00000375  00000+0  12686-3 0  9994
2 42809  86.3954 115.9788 0001935  89.0367 271.1051 14.34218250428012
IRIDIUM 124             
1 42810U 17039H   25240.54558577  .00000137  00000+0  34665-4 0  9992
2 42810  86.4454  52.6903 0002351  92.0801 268.0670 14.43281351432903
IRIDIUM 128             
1 42811U 17039J   25240.18137444  .00000055  00000+0  12730-4 0  9997
2 42811  86.4024 147.6524 0002521  86.4232 273.7252 14.34218166427980
IRIDIUM 121             
1 42812U 17039K   25240.20966275  .00000116  00000+0  34245-4 0  9996
2 42812  86.3960 116.1723 0002243  84.6754 275.4697 14.34217749427833
IRIDIUM 133             
1 42955U 17061A   25240.21308668  .00000014  00000+0 -20151-5 0  9996
2 42955  86.4026 147.7493 0002071  85.0623 275.0810 14.34217857412789
IRIDIUM 100             
1 42956U 17061B   25240.20674402  .00000224  00000+0  72836-4 0  9996
2 42956  86.4024 147.6778 0002162  88.5523 271.5921 14.34218568412785
IRIDIUM 122             
1 42957U 17061C   25239.82618806  .00000122  00000+0  36425-4 0  9990
2 42957  86.4023 147.8359 0002135  85.9848 274.1592 14.34218583412738
IRIDIUM 129             
1 42958U 17061D   25240.20040090  .00000069  00000+0  17545-4 0  9991
2 42958  86.4024 147.7435 0001902  74.0860 286.0545 14.34218127412800
